OBJECT_NAME,OBJECT_ID,EPOCH,MEAN_MOTION,ECCENTRICITY,INCLINATION,RA_OF_ASC_NODE,ARG_OF_PERICENTER,MEAN_ANOMALY,EPHEMERIS_TYPE,CLASSIFICATION_TYPE,NORAD_CAT_ID,ELEMENT_SET_NO,REV_AT_EPOCH,BSTAR,MEAN_MOTION_DOT,MEAN_MOTION_DDOT
H-2A R/B,2006-002B,2026-07-13T00:31:39.638784,15.18424873,.00506749,98.2583,352.1981,173.3647,186.8267,0,U,28932,999,11344,.23980192E-3,.5019E-4,0
RESURS-DK 1,2006-021A,2026-07-13T05:04:21.530784,15.13315244,.00069775,69.9309,272.1825,273.2712,86.7656,0,U,29228,999,10651,.62348319E-4,.1004E-4,0
CZ-4B R/B,2006-046C,2026-07-13T03:51:30.972960,15.17971389,.00323695,97.5442,238.6879,189.2203,170.8440,0,U,29507,999,7907,.11590832E-3,.2315E-4,0
CZ-2C R/B,2007-010B,2026-07-13T06:24:05.225760,14.20281507,.00578044,98.4117,301.3447,289.4901,70.0038,0,U,31114,999,99754,.31042104E-4,.26E-6,0
COSMO-SKYMED 1,2007-023A,2026-07-13T06:24:50.327424,14.97213794,.00012609,97.8844,26.3437,103.3433,256.7929,0,U,31598,999,3369,.12204938E-3,.1352E-4,0
COSMOS 2428,2007-029A,2026-07-13T06:25:01.273440,14.12933304,.00071821,70.9381,299.7190,85.0806,275.1135,0,U,31792,999,98183,.1324411E-3,.199E-5,0
SL-16 R/B,2007-029B,2026-07-13T04:35:31.954848,14.14851052,.00020103,70.9746,268.5653,256.2386,132.7213,0,U,31793,999,98312,.6777655E-4,.83E-6,0
KORONAS-FOTON,2009-003A,2026-07-12T23:14:58.516512,15.46264563,.00123243,82.4300,145.3551,69.0664,291.1902,0,U,33504,999,96508,.17981944E-3,.8913E-4,0
CZ-2C R/B,2011-030B,2026-07-13T07:49:20.606880,14.81530353,.00508993,97.8669,149.2435,302.4085,181.6663,0,U,37731,999,80869,.74016065E-4,.538E-5,0
H-2A R/B,2012-025E,2026-07-12T23:29:01.749408,14.95834714,.00423722,98.4848,171.2548,262.6189,97.0213,0,U,38341,999,76694,.63908648E-4,.655E-5,0
SHIJIAN-16 (SJ-16),2013-057A,2026-07-13T07:30:03.057696,14.92667691,.00158235,74.9737,307.1996,169.3726,190.7800,0,U,39358,999,69024,.68254452E-4,.676E-5,0
SL-4 R/B,2014-021B,2026-07-12T22:02:48.743808,15.42452959,.00897962,51.6063,84.6655,200.0922,159.6520,0,U,39679,999,67558,.14899335E-3,.7119E-4,0
ALOS-2,2014-029A,2026-07-13T05:53:27.025152,14.79472347,.0001599,97.9229,291.0365,93.9918,266.1477,0,U,39766,999,65543,.14966522E-3,.1066E-4,0
YAOGAN-29,2015-069A,2026-07-13T06:54:23.751360,14.83104066,.00009057,98.0024,222.9604,13.1564,346.9673,0,U,41038,999,57449,.909456E-6,-.47E-6,0
ASTRO-H (HITOMI),2016-012A,2026-07-13T06:24:43.557984,15.10628089,.00096014,30.9986,265.7423,155.9263,204.1825,0,U,41337,999,57123,.82001357E-4,.1486E-4,0
HXMT (HUIYAN),2017-034A,2026-07-13T01:11:17.774592,15.18678216,.00325026,43.0152,39.0112,307.6003,52.1896,0,U,42758,999,50159,.13906236E-3,.2729E-4,0
SAOCOM 1A,2018-076A,2026-07-13T06:18:10.302336,14.82144479,.00014467,97.8885,20.6325,84.7941,275.3437,0,U,43641,999,41996,-.20459253E-4,-.215E-5,0
H-2A R/B,2018-084L,2026-07-13T03:40:06.709152,15.46149333,.00207013,98.8540,78.7338,308.1441,51.7937,0,U,43682,999,42513,.28042063E-3,.13747E-3,0
SAOCOM 1B,2020-059A,2026-07-13T07:03:07.316352,14.82158677,.00015977,97.8890,19.7595,80.3761,279.7632,0,U,46265,999,31735,.59601447E-4,.422E-5,0
CSS (TIANHE),2021-035A,2026-07-12T07:55:55.916256,15.58035041,.00024282,41.4686,169.1964,290.9815,69.0763,0,U,48274,999,29709,.14700842E-4,.806E-5,0
COSMOS 2550,2021-056A,2026-07-13T07:16:20.362944,15.33813733,.00084867,67.1435,20.9070,270.6818,89.3364,0,U,48865,999,28272,.23090766E-4,.568E-5,0
CZ-2C R/B,2022-058K,2026-07-12T22:42:20.433312,15.63734509,.00304657,50.1858,29.2996,13.2357,346.9410,0,U,52794,999,22967,.36102805E-3,.34864E-3,0
CZ-2C R/B,2022-132E,2026-07-13T05:34:37.927488,15.74791056,.0009808,97.2888,202.4811,351.4745,8.6351,0,U,54039,999,21004,.33543838E-3,.49474E-3,0
GSLV R/B,2022-138AN,2026-07-13T07:34:30.086400,14.97377522,.00237188,87.3818,124.2105,58.3676,301.9865,0,U,54149,999,20272,.10948104E-3,.1308E-4,0
XRISM,2023-137A,2026-07-13T06:09:43.846272,15.12661221,.00078651,31.0006,190.7052,227.1013,132.8966,0,U,57800,999,15681,.10993413E-3,.2069E-4,0
ACS3,2024-077B,2026-07-11T17:46:17.954112,13.95349463,.01210111,97.1723,106.0854,40.7850,320.2298,0,U,59588,999,11146,.713075E-2,.10248E-3,0
SPACEMOBILE-003,2024-163A,2026-07-12T02:59:11.082912,15.20757146,.00039532,52.9645,194.7701,176.8899,183.2120,0,U,61045,999,10156,.15017438E-4,.8E-7,0
SPACEMOBILE-005,2024-163B,2026-07-13T02:14:56.738400,15.20746160,.00085164,52.9757,190.2542,188.4778,171.6074,0,U,61046,999,10170,.29081362E-4,.32E-5,0
SPACEMOBILE-001,2024-163C,2026-07-11T10:46:43.885920,15.20792937,.00074751,52.9736,197.5273,183.3179,176.7767,0,U,61047,999,10145,.28550562E-4,.309E-5,0
SPACEMOBILE-002,2024-163D,2026-07-13T01:49:27.471360,15.20818302,.00063791,52.9787,190.0866,191.8159,168.2686,0,U,61048,999,10170,.61596906E-3,.13464E-3,0
